[{"OBJECT_NAME":"KUIPER-00115","OBJECT_ID":"2025-171W","EPOCH":"2026-03-07T12:07:54.453504","MEAN_MOTION":14.7993731,"ECCENTRICITY":6.501e-5,"INCLINATION":51.9013,"RA_OF_ASC_NODE":177.7472,"ARG_OF_PERICENTER":93.6025,"MEAN_ANOMALY":266.5011,"EPHEMERIS_TYPE":0,"CLASSIFICATION_TYPE":"U","NORAD_CAT_ID":65152,"ELEMENT_SET_NO":999,"REV_AT_EPOCH":3242,"BSTAR":0.0007971798,"MEAN_MOTION_DOT":5.862e-5,"MEAN_MOTION_DDOT":0},{"OBJECT_NAME":"KUIPER-00116","OBJECT_ID":"2025-171X","EPOCH":"2026-03-07T12:48:55.315584","MEAN_MOTION":14.79961167,"ECCENTRICITY":9.174e-5,"INCLINATION":51.9003,"RA_OF_ASC_NODE":182.6614,"ARG_OF_PERICENTER":134.6384,"MEAN_ANOMALY":225.4654,"EPHEMERIS_TYPE":0,"CLASSIFICATION_TYPE":"U","NORAD_CAT_ID":65153,"ELEMENT_SET_NO":999,"REV_AT_EPOCH":3235,"BSTAR":0.0011034382,"MEAN_MOTION_DOT":8.207e-5,"MEAN_MOTION_DDOT":0},{"OBJECT_NAME":"KUIPER-00118","OBJECT_ID":"2025-171Y","EPOCH":"2026-03-07T14:21:46.929312","MEAN_MOTION":14.80048204,"ECCENTRICITY":5.675e-5,"INCLINATION":51.8993,"RA_OF_ASC_NODE":184.8287,"ARG_OF_PERICENTER":76.6072,"MEAN_ANOMALY":283.4954,"EPHEMERIS_TYPE":0,"CLASSIFICATION_TYPE":"U","NORAD_CAT_ID":65154,"ELEMENT_SET_NO":999,"REV_AT_EPOCH":3233,"BSTAR":0.0010519297,"MEAN_MOTION_DOT":7.829e-5,"MEAN_MOTION_DDOT":0},{"OBJECT_NAME":"KUIPER-00119","OBJECT_ID":"2025-171Z","EPOCH":"2026-03-07T11:27:04.130496","MEAN_MOTION":14.80017693,"ECCENTRICITY":9.909e-5,"INCLINATION":51.9005,"RA_OF_ASC_NODE":172.9526,"ARG_OF_PERICENTER":143.0602,"MEAN_ANOMALY":217.0429,"EPHEMERIS_TYPE":0,"CLASSIFICATION_TYPE":"U","NORAD_CAT_ID":65155,"ELEMENT_SET_NO":999,"REV_AT_EPOCH":3248,"BSTAR":0.0010064593,"MEAN_MOTION_DOT":7.475e-5,"MEAN_MOTION_DDOT":0},{"OBJECT_NAME":"KUIPER-00120","OBJECT_ID":"2025-217A","EPOCH":"2026-03-07T09:01:56.252928","MEAN_MOTION":14.79936175,"ECCENTRICITY":5.594e-5,"INCLINATION":51.8986,"RA_OF_ASC_NODE":63.2978,"ARG_OF_PERICENTER":92.8627,"MEAN_ANOMALY":267.2399,"EPHEMERIS_TYPE":0,"CLASSIFICATION_TYPE":"U","NORAD_CAT_ID":65762,"ELEMENT_SET_NO":999,"REV_AT_EPOCH":2439,"BSTAR":-0.00058927028,"MEAN_MOTION_DOT":-4.71e-5,"MEAN_MOTION_DDOT":0},{"OBJECT_NAME":"KUIPER-00132","OBJECT_ID":"2025-217B","EPOCH":"2026-03-07T12:59:31.191072","MEAN_MOTION":15.39677273,"ECCENTRICITY":0.00062292,"INCLINATION":51.861,"RA_OF_ASC_NODE":13.9287,"ARG_OF_PERICENTER":329.2733,"MEAN_ANOMALY":30.789,"EPHEMERIS_TYPE":0,"CLASSIFICATION_TYPE":"U","NORAD_CAT_ID":65763,"ELEMENT_SET_NO":999,"REV_AT_EPOCH":2509,"BSTAR":0.0012586006,"MEAN_MOTION_DOT":0.00050448,"MEAN_MOTION_DDOT":0},{"OBJECT_NAME":"KUIPER-00133","OBJECT_ID":"2025-217C","EPOCH":"2026-03-07T09:50:33.660384","MEAN_MOTION":14.79940965,"ECCENTRICITY":0.00021418,"INCLINATION":51.9036,"RA_OF_ASC_NODE":63.1984,"ARG_OF_PERICENTER":24.4043,"MEAN_ANOMALY":335.7021,"EPHEMERIS_TYPE":0,"CLASSIFICATION_TYPE":"U","NORAD_CAT_ID":65764,"ELEMENT_SET_NO":999,"REV_AT_EPOCH":2440,"BSTAR":0.00084057943,"MEAN_MOTION_DOT":6.194e-5,"MEAN_MOTION_DDOT":0},{"OBJECT_NAME":"KUIPER-00139","OBJECT_ID":"2025-217D","EPOCH":"2026-03-07T09:07:13.179360","MEAN_MOTION":15.0184751,"ECCENTRICITY":0.00071228,"INCLINATION":51.886,"RA_OF_ASC_NODE":44.3736,"ARG_OF_PERICENTER":312.1612,"MEAN_ANOMALY":47.8754,"EPHEMERIS_TYPE":0,"CLASSIFICATION_TYPE":"U","NORAD_CAT_ID":65765,"ELEMENT_SET_NO":999,"REV_AT_EPOCH":2466,"BSTAR":0.0010104347,"MEAN_MOTION_DOT":0.00013096,"MEAN_MOTION_DDOT":0},{"OBJECT_NAME":"KUIPER-00142","OBJECT_ID":"2025-217E","EPOCH":"2026-03-07T07:52:02.517024","MEAN_MOTION":14.79926569,"ECCENTRICITY":5.178e-5,"INCLINATION":51.8997,"RA_OF_ASC_NODE":46.0343,"ARG_OF_PERICENTER":82.1586,"MEAN_ANOMALY":277.9435,"EPHEMERIS_TYPE":0,"CLASSIFICATION_TYPE":"U","NORAD_CAT_ID":65766,"ELEMENT_SET_NO":999,"REV_AT_EPOCH":2463,"BSTAR":0.00075847041,"MEAN_MOTION_DOT":5.565e-5,"MEAN_MOTION_DDOT":0},{"OBJECT_NAME":"KUIPER-00145","OBJECT_ID":"2025-217F","EPOCH":"2026-03-07T09:25:12.789696","MEAN_MOTION":14.79938449,"ECCENTRICITY":7.858e-5,"INCLINATION":51.901,"RA_OF_ASC_NODE":48.2618,"ARG_OF_PERICENTER":90.7543,"MEAN_ANOMALY":269.3509,"EPHEMERIS_TYPE":0,"CLASSIFICATION_TYPE":"U","NORAD_CAT_ID":65767,"ELEMENT_SET_NO":999,"REV_AT_EPOCH":2460,"BSTAR":0.00019793143,"MEAN_MOTION_DOT":1.288e-5,"MEAN_MOTION_DDOT":0},{"OBJECT_NAME":"KUIPER-00147","OBJECT_ID":"2025-217G","EPOCH":"2026-03-07T08:32:49.067808","MEAN_MOTION":14.79949261,"ECCENTRICITY":6.196e-5,"INCLINATION":51.8996,"RA_OF_ASC_NODE":50.9184,"ARG_OF_PERICENTER":89.1897,"MEAN_ANOMALY":270.9136,"EPHEMERIS_TYPE":0,"CLASSIFICATION_TYPE":"U","NORAD_CAT_ID":65768,"ELEMENT_SET_NO":999,"REV_AT_EPOCH":2456,"BSTAR":0.00077953231,"MEAN_MOTION_DOT":5.729e-5,"MEAN_MOTION_DDOT":0},{"OBJECT_NAME":"KUIPER-00148","OBJECT_ID":"2025-217H","EPOCH":"2026-03-07T06:56:15.755136","MEAN_MOTION":15.09599073,"ECCENTRICITY":0.000832,"INCLINATION":51.8791,"RA_OF_ASC_NODE":35.779,"ARG_OF_PERICENTER":347.1625,"MEAN_ANOMALY":12.9136,"EPHEMERIS_TYPE":0,"CLASSIFICATION_TYPE":"U","NORAD_CAT_ID":65769,"ELEMENT_SET_NO":999,"REV_AT_EPOCH":2477,"BSTAR":0.0010896,"MEAN_MOTION_DOT":0.00017483,"MEAN_MOTION_DDOT":0},{"OBJECT_NAME":"KUIPER-00150","OBJECT_ID":"2025-217J","EPOCH":"2026-03-07T09:54:06.069600","MEAN_MOTION":14.80025935,"ECCENTRICITY":7.894e-5,"INCLINATION":51.9014,"RA_OF_ASC_NODE":60.6715,"ARG_OF_PERICENTER":52.176,"MEAN_ANOMALY":307.9274,"EPHEMERIS_TYPE":0,"CLASSIFICATION_TYPE":"U","NORAD_CAT_ID":65770,"ELEMENT_SET_NO":999,"REV_AT_EPOCH":2443,"BSTAR":0.00072404294,"MEAN_MOTION_DOT":5.315e-5,"MEAN_MOTION_DDOT":0},{"OBJECT_NAME":"KUIPER-00151","OBJECT_ID":"2025-217K","EPOCH":"2026-03-07T08:28:55.223616","MEAN_MOTION":14.79937353,"ECCENTRICITY":0.00010967,"INCLINATION":51.9012,"RA_OF_ASC_NODE":53.4321,"ARG_OF_PERICENTER":67.7861,"MEAN_ANOMALY":292.3218,"EPHEMERIS_TYPE":0,"CLASSIFICATION_TYPE":"U","NORAD_CAT_ID":65771,"ELEMENT_SET_NO":999,"REV_AT_EPOCH":2453,"BSTAR":0.00079688017,"MEAN_MOTION_DOT":5.86e-5,"MEAN_MOTION_DDOT":0},{"OBJECT_NAME":"KUIPER-00152","OBJECT_ID":"2025-217L","EPOCH":"2026-03-07T07:59:42.482112","MEAN_MOTION":14.7992746,"ECCENTRICITY":9.221e-5,"INCLINATION":51.901,"RA_OF_ASC_NODE":41.0143,"ARG_OF_PERICENTER":99.705,"MEAN_ANOMALY":260.4017,"EPHEMERIS_TYPE":0,"CLASSIFICATION_TYPE":"U","NORAD_CAT_ID":65772,"ELEMENT_SET_NO":999,"REV_AT_EPOCH":2470,"BSTAR":0.00019585878,"MEAN_MOTION_DOT":1.272e-5,"MEAN_MOTION_DDOT":0},{"OBJECT_NAME":"KUIPER-00153","OBJECT_ID":"2025-217M","EPOCH":"2026-03-07T06:53:36.684960","MEAN_MOTION":15.13154405,"ECCENTRICITY":0.0010428,"INCLINATION":51.879,"RA_OF_ASC_NODE":38.7222,"ARG_OF_PERICENTER":314.9499,"MEAN_ANOMALY":45.0631,"EPHEMERIS_TYPE":0,"CLASSIFICATION_TYPE":"U","NORAD_CAT_ID":65773,"ELEMENT_SET_NO":999,"REV_AT_EPOCH":2473,"BSTAR":0.00062062,"MEAN_MOTION_DOT":0.00010866,"MEAN_MOTION_DDOT":0},{"OBJECT_NAME":"KUIPER-00155","OBJECT_ID":"2025-217N","EPOCH":"2026-03-07T13:33:55.388160","MEAN_MOTION":15.23046413,"ECCENTRICITY":0.00056032,"INCLINATION":51.8783,"RA_OF_ASC_NODE":21.5657,"ARG_OF_PERICENTER":318.0898,"MEAN_ANOMALY":41.9653,"EPHEMERIS_TYPE":0,"CLASSIFICATION_TYPE":"U","NORAD_CAT_ID":65774,"ELEMENT_SET_NO":999,"REV_AT_EPOCH":2499,"BSTAR":0.0010278704,"MEAN_MOTION_DOT":0.0002429,"MEAN_MOTION_DDOT":0}]
