KUIPER-00115            
1 65152U 25171W   26066.50549136  .00005862  00000+0  79718-3 0  9993
2 65152  51.9013 177.7472 0000650  93.6025 266.5011 14.79937310 32427
KUIPER-00116            
1 65153U 25171X   26066.53397356  .00008207  00000+0  11034-2 0  9994
2 65153  51.9003 182.6614 0000917 134.6384 225.4654 14.79961167 32356
KUIPER-00118            
1 65154U 25171Y   26066.59845983  .00007829  00000+0  10519-2 0  9991
2 65154  51.8993 184.8287 0000567  76.6072 283.4954 14.80048204 32339
KUIPER-00119            
1 65155U 25171Z   26066.47713114  .00007475  00000+0  10065-2 0  9992
2 65155  51.9005 172.9526 0000990 143.0602 217.0429 14.80017693 32481
KUIPER-00120            
1 65762U 25217A   26066.37634552 -.00004710  00000+0 -58927-3 0  9995
2 65762  51.8986  63.2978 0000559  92.8627 267.2399 14.79936175 24391
KUIPER-00132            
1 65763U 25217B   26066.54133323  .00050448  00000+0  12586-2 0  9992
2 65763  51.8610  13.9287 0006229 329.2733  30.7890 15.39677273 25091
KUIPER-00133            
1 65764U 25217C   26066.41011181  .00006194  00000+0  84058-3 0  9999
2 65764  51.9036  63.1984 0002141  24.4043 335.7021 14.79940965 24405
KUIPER-00139            
1 65765U 25217D   26066.38001365  .00013096  00000+0  10104-2 0  9998
2 65765  51.8860  44.3736 0007122 312.1612  47.8754 15.01847510 24669
KUIPER-00142            
1 65766U 25217E   26066.32780691  .00005565  00000+0  75847-3 0  9997
2 65766  51.8997  46.0343 0000517  82.1586 277.9435 14.79926569 24634
KUIPER-00145            
1 65767U 25217F   26066.39250914  .00001288  00000+0  19793-3 0  9991
2 65767  51.9010  48.2618 0000785  90.7543 269.3509 14.79938449 24600
KUIPER-00147            
1 65768U 25217G   26066.35612347  .00005729  00000+0  77953-3 0  9996
2 65768  51.8996  50.9184 0000619  89.1897 270.9136 14.79949261 24564
KUIPER-00148            
1 65769U 25217H   26066.28907124  .00017483  00000+0  10896-2 0  9991
2 65769  51.8791  35.7790 0008320 347.1625  12.9136 15.09599073 24778
KUIPER-00150            
1 65770U 25217J   26066.41257025  .00005315  00000+0  72404-3 0  9991
2 65770  51.9014  60.6715 0000789  52.1760 307.9274 14.80025935 24439
KUIPER-00151            
1 65771U 25217K   26066.35341694  .00005860  00000+0  79688-3 0  9997
2 65771  51.9012  53.4321 0001096  67.7861 292.3218 14.79937353 24537
KUIPER-00152            
1 65772U 25217L   26066.33313058  .00001272  00000+0  19586-3 0  9993
2 65772  51.9010  41.0143 0000922  99.7050 260.4017 14.79927460 24703
KUIPER-00153            
1 65773U 25217M   26066.28723015  .00010866  00000+0  62062-3 0  9992
2 65773  51.8790  38.7222 0010428 314.9499  45.0631 15.13154405 24732
KUIPER-00155            
1 65774U 25217N   26066.56522440  .00024290  00000+0  10279-2 0  9991
2 65774  51.8783  21.5657 0005603 318.0898  41.9653 15.23046413 24991
